STARLINK-1584_new
1 16044C 20055T   21326.15521004 -.00000162  00000-0 -10884-4 0  3262
2 16044  53.0536 328.0433 0001671  54.2907  65.2041 15.06389423    17
STARLINK-1584_old
1 26044C 20055T   21325.15955520 -.00015009  00000-0 -10060-2 0  3254
2 26044  53.0536 332.5132 0001598  55.1040  61.9738 15.06398845    13
